STARLINK-36075          
1 66905U 25283AD  25361.91671296 -.00476783  00000+0 -90061-2 0  9998
2 66905  53.1598 358.4746 0001488  77.7344 231.4022 15.49595016  4866
1998-067XS              
1 66906U 98067XS  25361.48455583  .00028453  00000+0  48079-3 0  9998
2 66906  51.6319  69.2523 0002659 278.8538  81.2150 15.51372826  3903
1998-067XT              
1 66907U 98067XT  25361.91894816  .00078499  00000+0  12132-2 0  9998
2 66907  51.6317  66.9028 0003882 320.2440  39.8265 15.53389909  3974
1998-067XU              
1 66908U 98067XU  25361.91777037  .00067801  00000+0  10494-2 0  9998
2 66908  51.6317  66.8944 0004039 316.9902  43.0773 15.53412367  3977
SILVERSAT               
1 66909U 98067XV  25361.46540558  .00076025  00000+0  11635-2 0  9991
2 66909  51.6313  69.1235 0003945 319.4612  40.6084 15.53674289  3908
1998-067XW              
1 66910U 98067XW  25361.91416426  .00079310  00000+0  12148-2 0  9999
2 66910  51.6305  66.8697 0003670 293.1612  66.8991 15.53633108  3979
1998-067XX              
1 66911U 98067XX  25361.39493673  .00082680  00000+0  12426-2 0  9994
2 66911  51.6308  69.4034 0003462 299.6786  60.3859 15.54137727  3888
1998-067XY              
1 66912U 98067XY  25361.21690567  .00054785  00000+0  87690-3 0  9998
2 66912  51.6314  70.4653 0003872 305.7746  54.2884 15.52574078  3854
2025-284A               
1 66913U 25284A   25357.10748193  .00008748  00000+0  55264-3 0  9992
2 66913  80.4035 116.7336 0013475 259.6514 100.3189 15.08893564  2694
2025-284B               
1 66914U 25284B   25350.28554881  .00008068  00000+0  38445-3 0  9991
2 66914  80.4045 125.2713 0008179 234.9626 125.0834 15.18985981  1668
HULIANWANG DIGUI-105    
1 66915U 25285A   25361.51191895  .00000058  00000+0  13672-3 0  9999
2 66915  50.0023  57.1247 0006275 333.8573  26.2013 14.01758696  2987
HULIANWANG DIGUI-106    
1 66916U 25285B   25361.43773301  .00000055  00000+0  13439-3 0  9997
2 66916  50.0052  57.4085 0004948 327.7035  32.3565 14.01851189  2973
